C/2020 H8 (PANSTARRS),e,99.7012,68.4381,128.9128,600.0224,0.0000671,0.99221290,0.0000,06/04.5595/2020,2000,g 10.5,4.0
# From MPEC 2022-ED3
A/2020 H9,e,137.8791,213.1814,312.7813,365.1403,0.0001413,0.99296160,0.0000,12/21.8351/2019,2000,g 18.0,2.0
# From MPEC 2023-HN7
C/2020 H11 (PANSTARRS-Lemmon),h,09/14.5130/2020,151.3923,303.0447,91.4395,1.001729,7.624982,2000,8.5,4.0
# From MPEC 2023-KD6
C/2020 J1 (SONEAR),h,04/18.5635/2021,142.3059,226.6103,341.7037,1.000552,3.350803,2000,8.5,3.2
# From MPEC 2024-A43
C/2020 K1 (PANSTARRS),e,89.6733,94.3606,213.9832,12603,0.0000007,0.99975614,0.0000,05/09.0699/2023,2000,g  5.5,4.0
# From MPEC 2021-N06
C/2020 K2 (PANSTARRS),h,08/06.0520/2020,91.0100,288.4081,67.3471,1.002888,8.880590,2000,10.8,4.0
# From MPEC 2020-KF9
C/2020 K3 (Leonard),p,06/01.0032/2020,129.0152,64.4924,1.583069,28.3546,2000,14.5,4.0
# From MPEC 2020-L06
C/2020 K4 (PANSTARRS),e,125.5851,264.2372,308.8624,23.97046,0.0083983,0.92692375,11.7975,01/08.0/2024,2000,g 16.5,4.0
# From MPEC 2021-R75
C/2020 K5 (PANSTARRS),h,06/05.2467/2021,67.0920,86.1533,249.6241,1.001228,1.537783,2000,11.0,4.0
# From MPEC 2023-N01
C/2020 K6 (Rankin),h,09/15.7198/2021,103.6455,291.5718,44.3322,1.003483,5.868507,2000,8.0,4.0
# From MPEC 2023-A50
C/2020 K7 (PANSTARRS),e,32.0438,286.0994,358.2192,97.25858,0.0010276,0.93425584,1.5759,01/08.0/2024,2000,g  8.0,4.0
# From MPEC 2021-P47
C/2020 K8 (Catalina-ATLAS),h,09/15.1049/2020,31.4452,181.5042,259.9693,1.000224,0.471288,2000,15.0,3.2
# From MPEC 2021-BE3
P/2020 K9 (Lemmon-PANSTARRS),e,23.2047,166.3121,197.0557,4.204498,0.1143228,0.32097123,121.1394,01/08.0/2024,2000,g 12.5,4.0
# From MPEC 2023-C45
P/2020 M1 (PANSTARRS),e,8.5338,142.6053,72.6272,5.316066,0.0804116,0.47312998,118.6533,01/08.0/2024,2000,g 14.5,4.0
# From MPEC 2022-H30
C/2020 M3 (ATLAS),e,23.4696,71.1822,328.5677,27.18649,0.0069530,0.95329862,8.1282,01/08.0/2024,2000,g 14.5,4.0
# From MPEC 2023-N01
A/2020 M4,h,11/23.9477/2020,160.1201,348.6236,104.5977,1.000964,5.948029,2000,14.5,2.0
# From MPC xxxxx
P/2020 MK4 (PANSTARRS),e,6.7899,0.7057,95.9471,6.214398,0.0636217,0.01296747,281.4026,01/08.0/2024,2000,g  8.0,4.0
# From MPEC 2023-FK0
C/2020 M5 (ATLAS),h,08/19.8610/2021,93.2079,352.0777,126.2771,1.000330,3.001329,2000,9.0,4.0
# From MPEC 2022-GA9
C/2020 N1 (PANSTARRS),h,03/12.5747/2021,29.7343,279.8978,186.7740,1.000571,1.317383,2000,12.5,4.0
# From MPEC 2021-P47
C/2020 N2 (ATLAS),e,161.0401,257.1632,331.2999,103.0258,0.0009425,0.98261548,0.0000,08/24.0722/2020,2000,g 16.0,3.2
# From MPEC 2023-XP6
C/2020 O2 (Amaral),h,08/28.2183/2021,71.7622,256.7850,10.2739,1.000986,4.861561,2000,8.0,3.2
# From MPEC 2023-C45
P/2020 O3 (PANSTARRS),e,8.4445,266.8186,81.5597,4.647191,0.0983826,0.10278643,105.6499,01/08.0/2024,2000,g 12.0,4.0
# From MPEC 2021-BE3
C/2020 P1 (NEOWISE),h,10/20.6966/2020,45.1661,53.4762,8.8971,1.000358,0.340657,2000,14.0,3.2
# From MPEC 2023-O39
C/2020 P3 (ATLAS),h,04/21.8606/2021,61.8860,19.4686,82.2966,1.002391,6.813090,2000,6.0,4.0
# From MPEC 2022-PB4
C/2020 PV6 (PANSTARRS),e,128.2071,329.1471,71.3584,42.02553,0.0036177,0.94542058,3.0167,01/08.0/2024,2000,g 10.0,4.0
# From MPEC 2022-L66
C/2020 Q1 (Borisov),e,142.9430,52.3973,9.9712,61.51244,0.0020430,0.97857222,0.0000,08/14.6848/2020,2000,g 14.0,4.0
# From MPEC 2023-CD7
C/2020 Q2 (PANSTARRS),e,3.3357,179.8230,118.2823,10.62767,0.0284477,0.49055996,40.9868,01/08.0/2024,2000,g 12.0,3.2
# From MPEC 2022-X67
C/2020 R2 (PANSTARRS),e,53.2277,195.0971,211.8291,421.0032,0.0001141,0.98884941,0.0000,02/25.1451/2022,2000,g  9.0,4.0
# From MPEC 2022-K19
C/2020 R4 (ATLAS),e,164.4381,323.2643,46.6377,99.44936,0.0009938,0.98969397,0.0000,03/02.3248/2021,2000,g 13.5,4.0
# From MPEC 2023-C45
P/2020 R5 (PANSTARRS),e,11.4418,272.9563,82.7052,4.989718,0.0884281,0.31410966,116.6057,01/08.0/2024,2000,g  9.5,6.0
# From MPEC 2021-Y10
C/2020 R6 (Rankin),e,82.8243,12.1855,271.9975,303.6869,0.0001862,0.98967253,0.0000,09/07.8822/2019,2000,g 11.0,4.0
# From MPEC 2024-A43
C/2020 R7 (ATLAS),h,09/16.2289/2022,114.9015,268.2941,347.8337,1.000214,2.955531,2000,7.0,3.2
# From MPEC 2021-BE3
P/2020 S1 (PANSTARRS),e,13.7236,129.5174,255.0380,5.996668,0.0671180,0.50761369,72.8473,01/08.0/2024,2000,g 14.0,4.0
# From MPEC 2022-ST7
C/2020 S2 (PANSTARRS),e,22.4021,197.6946,202.3507,10.23458,0.0301023,0.82819231,33.4645,01/08.0/2024,2000,g 17.0,4.0
# From MPEC 2022-C56
C/2020 S3 (Erasmus),e,20.0196,222.5942,350.0716,147.0669,0.0005526,0.99730952,0.0000,12/11.7026/2020,2000,g 13.5,3.2
# From MPEC 2023-XP6
C/2020 S4 (PANSTARRS),h,02/09.2729/2023,20.5675,117.7105,21.0024,1.001758,3.369701,2000,8.5,3.2
# From MPEC 2021-BE3
P/2020 S5 (PANSTARRS),e,12.3458,316.0561,53.2211,4.055807,0.1206669,0.33817494,150.4599,01/08.0/2024,2000,g 14.5,4.0
# From MPEC 2021-BE3
P/2020 S7 (PANSTARRS),e,16.0834,328.0934,40.5903,5.033148,0.0872860,0.41040059,99.9653,01/08.0/2024,2000,g 14.5,4.0
# From MPEC 2021-P47
C/2020 S8 (Lemmon),e,108.5281,24.0641,160.2259,253.9565,0.0002435,0.99070984,0.0000,04/10.7302/2021,2000,g 12.5,4.0
# From MPEC 2022-TD3
C/2020 T2 (Palomar),e,27.8375,83.0605,150.4393,294.3692,0.0001951,0.99300777,0.0000,07/10.7746/2021,2000,g 11.0,3.2
# From MPEC 2021-N06
P/2020 T3 (PANSTARRS),e,7.2985,73.9935,357.0434,3.516701,0.1494517,0.59233281,161.6773,01/08.0/2024,2000,g 18.0,3.2
# From MPEC 2021-N06
C/2020 T4 (PANSTARRS),h,07/05.4732/2021,83.8522,50.6197,79.5931,1.000338,2.190713,2000,13.0,3.2
# From MPEC 2021-BE3
C/2020 T5 (Lemmon),e,66.5469,237.8309,90.3567,695.1730,0.0000538,0.99727653,0.0000,10/08.9443/2020,2000,g 16.0,4.0
# From MPEC 2021-N06
P/2020 U2 (PANSTARRS),e,6.4202,342.8799,84.6648,3.777983,0.1342190,0.51132434,148.6530,01/08.0/2024,2000,g 18.0,4.0
# From MPEC 2021-W31
C/2020 U3 (Rankin),e,30.1478,282.6549,124.3657,67.05984,0.0017948,0.96601752,1.9127,01/08.0/2024,2000,g 15.0,4.0
# From MPEC 2023-W26
C/2020 U4 (PANSTARRS),h,04/09.4180/2022,167.0182,120.3527,70.0676,1.000338,5.359471,2000,7.0,4.0
# From MPEC 2023-SQ0
C/2020 U5 (PANSTARRS),e,97.2846,107.3193,75.4443,3992,0.0000039,0.99905896,0.0000,04/28.0119/2022,2000,g  8.0,4.0
# From MPEC 2024-A43
C/2020 V2 (ZTF),h,05/08.4704/2023,131.6116,212.3710,162.3940,1.000871,2.227574,2000,4.9,4.0
# From MPEC 2023-D72
P/2020 V3 (PANSTARRS),e,23.0320,198.2549,249.4926,8.393708,0.0405297,0.25747986,42.9910,01/08.0/2024,2000,g  8.3,4.0
# From MPEC 2023-KD6
P/2020 V4 (Rankin),e,14.2440,203.4834,257.0868,9.378860,0.0343146,0.45098469,30.9882,01/08.0/2024,2000,g  9.0,4.0
# From MPEC 2021-BE3
P/2020 W1 (Rankin),e,10.7826,124.3948,265.1826,7.219642,0.0508078,0.26625403,69.5084,01/08.0/2024,2000,g 10.0,4.0
# From MPEC 2021-BE3
C/2020 W5 (Lemmon),h,11/30.3788/2020,88.6082,75.4750,24.5189,1.001353,3.366158,2000,15.0,4.0
# From MPEC 2023-VM5
P/2020 WJ5 (Lemmon),e,22.2909,177.8009,338.0845,6.015113,0.0668095,0.17154657,61.5920,01/08.0/2024,2000,g  8.5,4.0
# From MPEC 2021-P47
P/2020 X1 (ATLAS),e,31.6878,56.0447,323.4376,4.532644,0.1021355,0.36525237,129.3062,01/08.0/2024,2000,g 13.0,4.0
# From MPEC 2024-A43
C/2020 X2 (ATLAS),e,18.1845,105.3947,347.4281,16.48240,0.0147290,0.76778681,16.9020,01/08.0/2024,2000,g 10.6,4.0
# From MPEC 2021-S45
C/2020 X4 (Leonard),e,80.6264,161.9096,140.3171,40.77131,0.0037859,0.87187418,4.3463,01/08.0/2024,2000,g  9.0,4.0
# From MPEC 2024-A43
C/2020 Y2 (ATLAS),e,101.2147,26.5321,266.4215,3132,0.0000056,0.99899613,0.0000,06/18.5345/2022,2000,g  6.5,4.0
# From MPEC 2021-R75
C/2020 Y3 (ATLAS),e,83.1061,191.4261,341.9064,140.2114,0.0005936,0.98577880,0.0000,12/03.2702/2020,2000,g 13.5,4.0
# From MPEC 2023-CD7
C/2021 A1 (Leonard),h,01/03.3400/2022,132.7387,255.9061,225.1354,1.000088,0.616109,2000,8.5,4.0
# From MPEC 2022-F14
C/2021 A2 (NEOWISE),e,107.0056,125.1543,338.7693,229.2749,0.0002839,0.99383972,0.0000,01/22.2729/2021,2000,g 13.5,4.0
# From MPEC 2022-ED3
C/2021 A4 (NEOWISE),e,111.5586,307.1057,204.7185,42.38877,0.0035713,0.97291107,0.0000,03/19.5956/2021,2000,g 16.0,4.0
# From MPEC 2021-BE3
P/2021 A5 (PANSTARRS),e,18.1855,328.8284,61.3540,3.047575,0.1852561,0.13991976,213.1778,01/08.0/2024,2000,g 15.0,4.0
# From MPEC 2023-O39
C/2021 A6 (PANSTARRS),e,75.5910,164.0642,351.6151,8855,0.0000012,0.99910507,0.0000,05/02.9609/2021,2000,g  7.0,4.0
# From MPEC 2022-M88
C/2021 A7 (NEOWISE),e,78.1656,154.4784,355.9895,1922,0.0000117,0.99897726,0.0000,07/15.1435/2021,2000,g 10.0,4.0
# From MPEC 2024-A43
C/2021 A9 (PANSTARRS),h,12/02.0091/2023,158.0135,314.8346,211.4786,1.001237,7.760041,2000,6.0,4.0
# From MPEC 2021-N06
C/2021 A10 (NEOWISE),e,151.9436,188.7299,82.4907,89.67889,0.0011606,0.98591522,0.0000,03/15.1168/2021,2000,g 19.0,4.0
# From MPEC 2022-L66
C/2021 B2 (PANSTARRS),e,38.0819,120.5061,334.9973,376.0639,0.0001351,0.99332115,0.0000,05/04.5406/2021,2000,g 14.0,4.0
# From MPEC 2021-N06
C/2021 B3 (NEOWISE),e,119.4762,67.2769,293.5353,34.31356,0.0049035,0.93698970,5.0693,01/08.0/2024,2000,g 13.5,4.0
# From MPEC 2023-KD6
C/2021 C1 (Rankin),e,143.0436,186.8845,336.1749,4027,0.0000039,0.99913706,0.0000,12/06.6904/2020,2000,g 11.5,4.0
# From MPEC 2021-U31
P/2021 C2 (PANSTARRS),e,21.9395,66.4567,78.7009,9.536348,0.0334681,0.48766915,35.0872,01/08.0/2024,2000,g 12.0,4.0
# From MPEC 2021-N06
C/2021 C3 (Catalina),e,122.1705,181.9132,357.0348,61.26074,0.0020556,0.96288726,2.1791,01/08.0/2024,2000,g 14.0,4.0
# From MPEC 2022-M88
C/2021 C4 (ATLAS),e,132.8495,194.2712,320.1457,17646,0.0000004,0.99974505,0.0000,01/16.8603/2021,2000,g  9.0,4.0
# From MPEC 2023-R20
C/2021 C5 (PANSTARRS),e,50.7864,323.6754,270.9200,1917,0.0000117,0.99830865,0.0000,02/11.0329/2023,2000,g  9.0,4.0
# From MPEC 2022-YB4
C/2021 C6 (Lemmon),e,164.6062,332.3346,203.8208,9168,0.0000011,0.99964239,0.0000,11/12.7253/2021,2000,g 12.0,4.0
# From MPEC 2022-F14
C/2021 D1 (SWAN),e,31.4148,311.2621,72.2908,101.2486,0.0009674,0.99107430,0.0000,02/27.7513/2021,2000,g 13.0,4.0
# From MPEC 2023-J29
C/2021 D2 (ZTF),h,02/03.9505/2022,83.7997,305.6660,125.0297,1.001629,2.946459,2000,9.0,4.0
# From MPEC 2022-UY9
